0 COSMOS 2251 DEB
1 33811U 93036BC  13281.37424774  .00002315  00000-0  49756-3 0  8994
2 33811 073.8565 006.8504 0078300 286.1367 118.1156 14.57299753247149
0 COSMOS 2251 DEB
1 33811U 93036BC  13283.36577580  .00003530  00000-0  75437-3 0  9007
2 33811 073.8570 003.0264 0078285 281.9148 126.2727 14.57317647247438
0 COSMOS 2251 DEB
1 33811U 93036BC  13285.50753608  .00003218  00000-0  68826-3 0  9010
2 33811 073.8573 358.9125 0078287 277.4151 202.6717 14.57327659247741
0 COSMOS 2251 DEB
1 33811U 93036BC  13287.70973410  .00004081  00000-0  87046-3 0  9024
2 33811 073.8572 354.6810 0078389 272.8941 236.1350 14.57341001248061
0 COSMOS 2251 DEB
1 33811U 93036BC  13290.15813597  .00004102  00000-0  87441-3 0  9030
2 33811 073.8570 349.9784 0078416 267.7558 121.5353 14.57360772248420
0 COSMOS 2251 DEB
1 33811U 93036BC  13292.51235193  .00003834  00000-0  81741-3 0  9041
2 33811 073.8562 345.4552 0078504 262.8790 232.8797 14.57376358248769
0 COSMOS 2251 DEB
1 33811U 93036BC  13294.84249081  .00004297  00000-0  91484-3 0  9050
2 33811 073.8558 340.9763 0078509 258.0890 217.9933 14.57392618249103
